{
  "type": "FeatureCollection",
  "features": [
    {
      "type": "Feature",
      "properties": {
        "norad_id": 34953,
        "name": "COSMOS 2251 DEB",
        "group": "cosmos-2251-debris",
        "lat": -73.26105004579496,
        "lon": -24.837969919414434,
        "alt_km": 695.8536557313637,
        "timestamp": "2025-12-02T19:35:50.950101+00:00",
        "meta_object_name": "COSMOS 2251 DEB",
        "meta_object_id": "1993-036AEG",
        "meta_epoch": "2025-12-01T13:12:33.253632",
        "meta_mean_motion": 14.68789994,
        "meta_eccentricity": 0.00575572,
        "meta_inclination": 74.0939,
        "meta_ra_of_asc_node": 49.072,
        "meta_arg_of_pericenter": 44.6171,
        "meta_mean_anomaly": 18.8426,
        "meta_ephemeris_type": 0,
        "meta_classification_type": "U",
        "meta_norad_cat_id": 34953,
        "meta_element_set_no": 999,
        "meta_rev_at_epoch": 87964,
        "meta_bstar": 0.00082002331,
        "meta_mean_motion_dot": 4.878e-05,
        "meta_mean_motion_ddot": 0,
        "tle_line1": "1 34953U 93036AEG 25335.55038488  .00004878  00000+0  82002-3 0  9995",
        "tle_line2": "2 34953  74.0939  49.0720 0057557  44.6171  18.8426 14.68789994879640"
      },
      "geometry": {
        "type": "Point",
        "coordinates": [
          -24.837969919414434,
          -73.26105004579496
        ]
      }
    },
    {
      "type": "Feature",
      "properties": {
        "norad_id": 34955,
        "name": "COSMOS 2251 DEB",
        "group": "cosmos-2251-debris",
        "lat": 5.6788611887097575,
        "lon": -91.6830054414936,
        "alt_km": 519.8235739369347,
        "timestamp": "2025-12-02T19:35:50.950111+00:00",
        "meta_object_name": "COSMOS 2251 DEB",
        "meta_object_id": "1993-036AEJ",
        "meta_epoch": "2025-12-01T13:09:43.011072",
        "meta_mean_motion": 15.0013692,
        "meta_eccentricity": 0.00783487,
        "meta_inclination": 74.0371,
        "meta_ra_of_asc_node": 269.2628,
        "meta_arg_of_pericenter": 341.7271,
        "meta_mean_anomaly": 18.1102,
        "meta_ephemeris_type": 0,
        "meta_classification_type": "U",
        "meta_norad_cat_id": 34955,
        "meta_element_set_no": 999,
        "meta_rev_at_epoch": 89866,
        "meta_bstar": 0.0010112451,
        "meta_mean_motion_dot": 0.00013453,
        "meta_mean_motion_ddot": 0,
        "tle_line1": "1 34955U 93036AEJ 25335.54841448  .00013453  00000+0  10112-2 0  9995",
        "tle_line2": "2 34955  74.0371 269.2628 0078348 341.7271  18.1102 15.00136920898667"
      },
      "geometry": {
        "type": "Point",
        "coordinates": [
          -91.6830054414936,
          5.6788611887097575
        ]
      }
    },
    {
      "type": "Feature",
      "properties": {
        "norad_id": 34962,
        "name": "COSMOS 2251 DEB",
        "group": "cosmos-2251-debris",
        "lat": -72.06616060783514,
        "lon": 149.67351346269552,
        "alt_km": 735.3182682143797,
        "timestamp": "2025-12-02T19:35:50.950121+00:00",
        "meta_object_name": "COSMOS 2251 DEB",
        "meta_object_id": "1993-036AER",
        "meta_epoch": "2025-12-02T01:42:53.375904",
        "meta_mean_motion": 14.46464357,
        "meta_eccentricity": 0.00185426,
        "meta_inclination": 74.0305,
        "meta_ra_of_asc_node": 213.2902,
        "meta_arg_of_pericenter": 327.8619,
        "meta_mean_anomaly": 32.1407,
        "meta_ephemeris_type": 0,
        "meta_classification_type": "U",
        "meta_norad_cat_id": 34962,
        "meta_element_set_no": 999,
        "meta_rev_at_epoch": 87424,
        "meta_bstar": 0.00050722321,
        "meta_mean_motion_dot": 1.801e-05,
        "meta_mean_motion_ddot": 0,
        "tle_line1": "1 34962U 93036AER 25336.07145111  .00001801  00000+0  50722-3 0  9992",
        "tle_line2": "2 34962  74.0305 213.2902 0018542 327.8619  32.1407 14.46464357874246"
      },
      "geometry": {
        "type": "Point",
        "coordinates": [
          149.67351346269552,
          -72.06616060783514
        ]
      }
    },
    {
      "type": "Feature",
      "properties": {
        "norad_id": 34963,
        "name": "COSMOS 2251 DEB",
        "group": "cosmos-2251-debris",
        "lat": 15.1014261737882,
        "lon": 65.65632614295637,
        "alt_km": 737.0322517247541,
        "timestamp": "2025-12-02T19:35:50.950131+00:00",
        "meta_object_name": "COSMOS 2251 DEB",
        "meta_object_id": "1993-036AES",
        "meta_epoch": "2025-11-20T14:36:14.688576",
        "meta_mean_motion": 14.50758017,
        "meta_eccentricity": 0.00421878,
        "meta_inclination": 74.1713,
        "meta_ra_of_asc_node": 84.0219,
        "meta_arg_of_pericenter": 284.4626,
        "meta_mean_anomaly": 75.1856,
        "meta_ephemeris_type": 0,
        "meta_classification_type": "U",
        "meta_norad_cat_id": 34963,
        "meta_element_set_no": 999,
        "meta_rev_at_epoch": 86480,
        "meta_bstar": 0.0012237467,
        "meta_mean_motion_dot": 4.847e-05,
        "meta_mean_motion_ddot": 0,
        "tle_line1": "1 34963U 93036AES 25324.60850334  .00004847  00000+0  12237-2 0  9990",
        "tle_line2": "2 34963  74.1713  84.0219 0042187 284.4626  75.1856 14.50758017864804"
      },
      "geometry": {
        "type": "Point",
        "coordinates": [
          65.65632614295637,
          15.1014261737882
        ]
      }
    },
    {
      "type": "Feature",
      "properties": {
        "norad_id": 34964,
        "name": "COSMOS 2251 DEB",
        "group": "cosmos-2251-debris",
        "lat": 33.48189675305014,
        "lon": 16.070722054536734,
        "alt_km": 1041.8712589117413,
        "timestamp": "2025-12-02T19:35:50.950142+00:00",
        "meta_object_name": "COSMOS 2251 DEB",
        "meta_object_id": "1993-036AET",
        "meta_epoch": "2025-12-01T10:51:07.970112",
        "meta_mean_motion": 14.00515212,
        "meta_eccentricity": 0.02132053,
        "meta_inclination": 73.9732,
        "meta_ra_of_asc_node": 7.4842,
        "meta_arg_of_pericenter": 228.1536,
        "meta_mean_anomaly": 130.1229,
        "meta_ephemeris_type": 0,
        "meta_classification_type": "U",
        "meta_norad_cat_id": 34964,
        "meta_element_set_no": 999,
        "meta_rev_at_epoch": 84320,
        "meta_bstar": 0.0017784594,
        "meta_mean_motion_dot": 3.191e-05,
        "meta_mean_motion_ddot": 0,
        "tle_line1": "1 34964U 93036AET 25335.45217558  .00003191  00000+0  17785-2 0  9995",
        "tle_line2": "2 34964  73.9732   7.4842 0213205 228.1536 130.1229 14.00515212843200"
      },
      "geometry": {
        "type": "Point",
        "coordinates": [
          16.070722054536734,
          33.48189675305014
        ]
      }
    },
    {
      "type": "Feature",
      "properties": {
        "norad_id": 34965,
        "name": "COSMOS 2251 DEB",
        "group": "cosmos-2251-debris",
        "lat": -6.9492499530569525,
        "lon": -30.958571510324962,
        "alt_km": 733.0096292034332,
        "timestamp": "2025-12-02T19:35:50.950152+00:00",
        "meta_object_name": "COSMOS 2251 DEB",
        "meta_object_id": "1993-036AEU",
        "meta_epoch": "2025-12-02T03:49:02.675136",
        "meta_mean_motion": 14.48660518,
        "meta_eccentricity": 0.00264925,
        "meta_inclination": 74.0504,
        "meta_ra_of_asc_node": 148.2743,
        "meta_arg_of_pericenter": 277.1444,
        "meta_mean_anomaly": 82.6704,
        "meta_ephemeris_type": 0,
        "meta_classification_type": "U",
        "meta_norad_cat_id": 34965,
        "meta_element_set_no": 999,
        "meta_rev_at_epoch": 86960,
        "meta_bstar": 0.0003671965,
        "meta_mean_motion_dot": 1.361e-05,
        "meta_mean_motion_ddot": 0,
        "tle_line1": "1 34965U 93036AEU 25336.15905874  .00001361  00000+0  36720-3 0  9997",
        "tle_line2": "2 34965  74.0504 148.2743 0026492 277.1444  82.6704 14.48660518869609"
      },
      "geometry": {
        "type": "Point",
        "coordinates": [
          -30.958571510324962,
          -6.9492499530569525
        ]
      }
    },
    {
      "type": "Feature",
      "properties": {
        "norad_id": 34967,
        "name": "COSMOS 2251 DEB",
        "group": "cosmos-2251-debris",
        "lat": -69.53795918875022,
        "lon": 142.6630435313119,
        "alt_km": 777.330043349788,
        "timestamp": "2025-12-02T19:35:50.950187+00:00",
        "meta_object_name": "COSMOS 2251 DEB",
        "meta_object_id": "1993-036AEW",
        "meta_epoch": "2025-12-01T02:30:41.683104",
        "meta_mean_motion": 14.44168549,
        "meta_eccentricity": 0.00374829,
        "meta_inclination": 73.9933,
        "meta_ra_of_asc_node": 275.5612,
        "meta_arg_of_pericenter": 64.8384,
        "meta_mean_anomaly": 295.6653,
        "meta_ephemeris_type": 0,
        "meta_classification_type": "U",
        "meta_norad_cat_id": 34967,
        "meta_element_set_no": 999,
        "meta_rev_at_epoch": 64789,
        "meta_bstar": 0.00079995093,
        "meta_mean_motion_dot": 2.741e-05,
        "meta_mean_motion_ddot": 0,
        "tle_line1": "1 34967U 93036AEW 25335.10464911  .00002741  00000+0  79995-3 0  9999",
        "tle_line2": "2 34967  73.9933 275.5612 0037482  64.8384 295.6653 14.44168549647896"
      },
      "geometry": {
        "type": "Point",
        "coordinates": [
          142.6630435313119,
          -69.53795918875022
        ]
      }
    }
  ]
}